INTELSAT 902 (IS-902)   
1 26900U 01039A   26196.47590510 -.00000297  00000+0  00000+0 0  9992
2 26900   6.1857  71.4350 0004220  41.7929 301.3181  1.00272544 90973
INTELSAT 904 (IS-904)   
1 27380U 02007A   26196.40827498 -.00000239  00000+0  00000+0 0  9998
2 27380   6.9884  68.8417 0005365  25.7006 314.2180  1.00270592 52046
DIRECTV 5 (TEMPO 1)     
1 27426U 02023A   26196.60658069 -.00000070  00000+0  00000+0 0  9998
2 27426   4.9484  74.9542 0003097  46.6638 280.0859  1.00271354 88400
INTELSAT 905 (IS-905)   
1 27438U 02027A   26196.74378094  .00000080  00000+0  00000+0 0  9997
2 27438   6.8231  69.4519 0003439  47.2275 307.4543  1.00271188 51646
GALAXY 3C (G-3C)        
1 27445U 02030A   26196.82345595 -.00000165  00000+0  00000+0 0  9993
2 27445   3.8058  77.6036 0001561  33.5687  24.1001  1.00270773 46782
INTELSAT 906 (IS-906)   
1 27513U 02041A   26196.78363431 -.00000001  00000+0  00000+0 0  9994
2 27513   5.8724  72.5671 0003800  25.6455 181.6753  1.00273269 87312
GALAXY 13 (HORIZONS-1)  
1 27954U 03044A   26196.74118093  .00000121  00000+0  00000+0 0  9997
2 27954   1.4905  83.4977 0002133  31.0500 295.8427  1.00271527 46859
INTELSAT 10-02          
1 28358U 04022A   26196.91326226 -.00000023  00000+0  00000+0 0  9993
2 28358   0.0547 252.3831 0000887 313.3223  55.8090  1.00261877 80847
DIRECTV 8               
1 28659U 05019A   26196.88994816  .00000000  00000+0  00000+0 0  9990
2 28659   0.0200  58.3119 0003195  72.1396   4.6229  1.00270575 77360
GALAXY 28 (G-28)        
1 28702U 05022A   26196.83682727 -.00000213  00000+0  00000+0 0  9990
2 28702   3.3698  78.5781 0002502  28.3488 100.9109  1.00271914 52268
GALAXY 16 (G-16)        
1 29236U 06023A   26196.82250260 -.00000137  00000+0  00000+0 0  9992
2 29236   0.0257 162.1509 0002488 310.2946  18.3053  1.00271221 73263
DIRECTV 9S              
1 29494U 06043A   26196.89350152 -.00000125  00000+0  00000+0 0  9995
2 29494   2.4929  80.5558 0004918  32.0508  41.5847  1.00271783 51674
GALAXY 17 (G-17)        
1 31307U 07016B   26196.89662153 -.00000218  00000+0  00000+0 0  9992
2 31307   3.0422  79.5364 0003574  34.4922  57.4669  1.00271643 70091
INTELSAT 11 (IS-11)     
1 32253U 07044B   26196.91334892 -.00000184  00000+0  00000+0 0  9995
2 32253   3.6382  78.3202 0004226 100.3877  83.2951  0.99052408 68730
HORIZONS-2              
1 32388U 07063B   26196.94145514 -.00000265  00000+0  00000+0 0  9999
2 32388   2.6743  80.2713 0003568  20.8088  97.7995  1.00269034 68103
DIRECTV 11              
1 32729U 08013A   26196.51016899 -.00000136  00000+0  00000+0 0  9997
2 32729   0.0353 223.2222 0000080 348.5472 166.0602  1.00271599 45871
GALAXY 18 (G-18)        
1 32951U 08024A   26196.88916816  .00000015  00000+0  00000+0 0  9999
2 32951   0.0149  64.7677 0002889  63.3023   2.7519  1.00271674 46144
GALAXY 19 (G-19)        
1 33376U 08045A   26196.89428152 -.00000149  00000+0  00000+0 0  9995
2 33376   0.0554 246.8504 0002354 238.0585  33.7689  1.00270984 65190
FM-5                    
1 35493U 09034A   26194.90035760 -.00000205  00000+0  00000+0 0  9998
2 35493   0.0457 259.5714 0000757  86.9227 183.2440  1.00271245 46912
INTELSAT 14 (IS-14)     
1 36097U 09064A   26196.90459556 -.00000284  00000+0  00000+0 0  9994
2 36097   0.0156 329.2962 0002233 155.0389  90.0463  1.00268429 60890
INTELSAT 15 (IS-15)     
1 36106U 09067A   26196.93024110 -.00000195  00000+0  00000+0 0  9996
2 36106   0.0167 359.1777 0002252 122.2404 232.3618  1.00268551 41511
DIRECTV 12              
1 36131U 09075A   26195.96641635 -.00000112  00000+0  00000+0 0  9991
2 36131   0.0065 109.4409 0000351 121.9560 306.6005  1.00271543 46831
INTELSAT 16 (IS-16)     
1 36397U 10006A   26196.89844153 -.00000255  00000+0  00000+0 0  9992
2 36397   0.0119  50.1644 0002364  87.9244  42.8707  1.00269850 59946
XM-5                    
1 37185U 10053A   26194.27598828 -.00000026  00000+0  00000+0 0  9991
2 37185   0.0648 265.0318 0001728 322.3275  47.9546  1.00270903 57741
INTELSAT 17 (IS-17)     
1 37238U 10065B   26196.92660108 -.00000012  00000+0  00000+0 0  9993
2 37238   0.0089 115.7191 0002638  18.9124 198.6970  1.00270859 53539
INTELSAT 28 (IS-28)     
1 37392U 11016A   26196.76466770 -.00000236  00000+0  00000+0 0  9990
2 37392   1.8781  82.2734 0003694  40.4095  54.4908  1.00272227 53574
INTELSAT 18 (IS-18)     
1 37834U 11056A   26196.59271395  .00000043  00000+0  00000+0 0  9998
2 37834   0.0273 285.8659 0001888 199.7046 201.2331  1.00274455 54091
INTELSAT 22 (IS-22)     
1 38098U 12011A   26196.92772775 -.00000069  00000+0  00000+0 0  9997
2 38098   0.0158  42.6258 0001853  81.1126 216.1062  1.00271872  7471
INTELSAT 19 (IS-19)     
1 38356U 12030A   26196.80378252 -.00000067  00000+0  00000+0 0  9992
2 38356   0.0179  26.2491 0003197 101.7096 261.0415  1.00271388 50736
INTELSAT 20 (IS-20)     
1 38740U 12043A   26196.92703441 -.00000035  00000+0  00000+0 0  9993
2 38740   0.0123  66.6866 0001385 109.7940 159.5195  1.00272905 51035
INTELSAT 21 (IS-21)     
1 38749U 12045A   26196.83073597 -.00000295  00000+0  00000+0 0  9994
2 38749   0.0518 250.4496 0001545 235.5039  48.7780  1.00272766 50818
